{
  "type": "FeatureCollection",
  "features": [
    {
      "type": "Feature",
      "properties": {
        "norad_id": 35616,
        "name": "IRIDIUM 33 DEB",
        "group": "iridium-33-debris",
        "lat": 85.05142188804733,
        "lon": 35.627344275638656,
        "alt_km": 617.4828325622402,
        "timestamp": "2025-12-07T09:35:10.174850+00:00",
        "meta_object_name": "IRIDIUM 33 DEB",
        "meta_object_id": "1997-051QN",
        "meta_epoch": "2025-12-06T07:15:38.847744",
        "meta_mean_motion": 14.81564916,
        "meta_eccentricity": 0.00091957,
        "meta_inclination": 86.3542,
        "meta_ra_of_asc_node": 348.7026,
        "meta_arg_of_pericenter": 186.8662,
        "meta_mean_anomaly": 173.2436,
        "meta_ephemeris_type": 0,
        "meta_classification_type": "U",
        "meta_norad_cat_id": 35616,
        "meta_element_set_no": 999,
        "meta_rev_at_epoch": 87479,
        "meta_bstar": 0.0030438731,
        "meta_mean_motion_dot": 0.00023991,
        "meta_mean_motion_ddot": 0,
        "tle_line1": "1 35616U 97051QN  25340.30253296  .00023991  00000+0  30439-2 0  9991",
        "tle_line2": "2 35616  86.3542 348.7026 0009195 186.8662 173.2436 14.81564916874798"
      },
      "geometry": {
        "type": "Point",
        "coordinates": [
          35.627344275638656,
          85.05142188804733
        ]
      }
    },
    {
      "type": "Feature",
      "properties": {
        "norad_id": 35618,
        "name": "IRIDIUM 33 DEB",
        "group": "iridium-33-debris",
        "lat": 57.237573744681626,
        "lon": 1.5438134146637343,
        "alt_km": 692.4450445905195,
        "timestamp": "2025-12-07T09:35:10.174861+00:00",
        "meta_object_name": "IRIDIUM 33 DEB",
        "meta_object_id": "1997-051QQ",
        "meta_epoch": "2025-12-05T07:42:53.148672",
        "meta_mean_motion": 14.52258119,
        "meta_eccentricity": 0.00302089,
        "meta_inclination": 86.3407,
        "meta_ra_of_asc_node": 356.7447,
        "meta_arg_of_pericenter": 46.3254,
        "meta_mean_anomaly": 314.0448,
        "meta_ephemeris_type": 0,
        "meta_classification_type": "U",
        "meta_norad_cat_id": 35618,
        "meta_element_set_no": 999,
        "meta_rev_at_epoch": 65286,
        "meta_bstar": 0.00091388234,
        "meta_mean_motion_dot": 3.753e-05,
        "meta_mean_motion_ddot": 0,
        "tle_line1": "1 35618U 97051QQ  25339.32144848  .00003753  00000+0  91388-3 0  9990",
        "tle_line2": "2 35618  86.3407 356.7447 0030208  46.3254 314.0448 14.52258119652865"
      },
      "geometry": {
        "type": "Point",
        "coordinates": [
          1.5438134146637343,
          57.237573744681626
        ]
      }
    },
    {
      "type": "Feature",
      "properties": {
        "norad_id": 35620,
        "name": "IRIDIUM 33 DEB",
        "group": "iridium-33-debris",
        "lat": -43.01380958281938,
        "lon": -143.67329126543467,
        "alt_km": 693.9158902810896,
        "timestamp": "2025-12-07T09:35:10.174871+00:00",
        "meta_object_name": "IRIDIUM 33 DEB",
        "meta_object_id": "1997-051QS",
        "meta_epoch": "2025-12-06T22:05:29.141088",
        "meta_mean_motion": 14.37743755,
        "meta_eccentricity": 0.01434797,
        "meta_inclination": 86.3877,
        "meta_ra_of_asc_node": 219.9074,
        "meta_arg_of_pericenter": 278.1615,
        "meta_mean_anomaly": 80.3329,
        "meta_ephemeris_type": 0,
        "meta_classification_type": "U",
        "meta_norad_cat_id": 35620,
        "meta_element_set_no": 999,
        "meta_rev_at_epoch": 59882,
        "meta_bstar": 0.0084190173,
        "meta_mean_motion_dot": 0.00028635,
        "meta_mean_motion_ddot": 0,
        "tle_line1": "1 35620U 97051QS  25340.92047617  .00028635  00000+0  84190-2 0  9995",
        "tle_line2": "2 35620  86.3877 219.9074 0143479 278.1615  80.3329 14.37743755598820"
      },
      "geometry": {
        "type": "Point",
        "coordinates": [
          -143.67329126543467,
          -43.01380958281938
        ]
      }
    },
    {
      "type": "Feature",
      "properties": {
        "norad_id": 35622,
        "name": "IRIDIUM 33 DEB",
        "group": "iridium-33-debris",
        "lat": -29.47501710568333,
        "lon": 88.38314695680009,
        "alt_km": 567.9579341788412,
        "timestamp": "2025-12-07T09:35:10.174881+00:00",
        "meta_object_name": "IRIDIUM 33 DEB",
        "meta_object_id": "1997-051QU",
        "meta_epoch": "2025-12-06T06:10:47.790912",
        "meta_mean_motion": 15.03498314,
        "meta_eccentricity": 0.00106929,
        "meta_inclination": 86.2036,
        "meta_ra_of_asc_node": 266.7937,
        "meta_arg_of_pericenter": 6.4287,
        "meta_mean_anomaly": 145.8832,
        "meta_ephemeris_type": 0,
        "meta_classification_type": "U",
        "meta_norad_cat_id": 35622,
        "meta_element_set_no": 999,
        "meta_rev_at_epoch": 87262,
        "meta_bstar": 0.0085488468,
        "meta_mean_motion_dot": 0.00118453,
        "meta_mean_motion_ddot": 0,
        "tle_line1": "1 35622U 97051QU  25340.25749758  .00118453  00000+0  85488-2 0  9997",
        "tle_line2": "2 35622  86.2036 266.7937 0010692   6.4287 145.8832 15.03498314872624"
      },
      "geometry": {
        "type": "Point",
        "coordinates": [
          88.38314695680009,
          -29.47501710568333
        ]
      }
    },
    {
      "type": "Feature",
      "properties": {
        "norad_id": 35628,
        "name": "IRIDIUM 33 DEB",
        "group": "iridium-33-debris",
        "lat": 22.225938253072307,
        "lon": 12.949488295829733,
        "alt_km": 661.3216140787717,
        "timestamp": "2025-12-07T09:35:10.174891+00:00",
        "meta_object_name": "IRIDIUM 33 DEB",
        "meta_object_id": "1997-051RA",
        "meta_epoch": "2025-12-04T09:28:36.488064",
        "meta_mean_motion": 14.67394134,
        "meta_eccentricity": 0.001144,
        "meta_inclination": 86.3576,
        "meta_ra_of_asc_node": 12.797,
        "meta_arg_of_pericenter": 12.0998,
        "meta_mean_anomaly": 348.0488,
        "meta_ephemeris_type": 0,
        "meta_classification_type": "U",
        "meta_norad_cat_id": 35628,
        "meta_element_set_no": 999,
        "meta_rev_at_epoch": 86324,
        "meta_bstar": 0.0032445,
        "meta_mean_motion_dot": 0.00018408,
        "meta_mean_motion_ddot": 0,
        "tle_line1": "1 35628U 97051RA  25338.39486676  .00018408  00000+0  32445-2 0  9996",
        "tle_line2": "2 35628  86.3576  12.7970 0011440  12.0998 348.0488 14.67394134863246"
      },
      "geometry": {
        "type": "Point",
        "coordinates": [
          12.949488295829733,
          22.225938253072307
        ]
      }
    },
    {
      "type": "Feature",
      "properties": {
        "norad_id": 35631,
        "name": "IRIDIUM 33 DEB",
        "group": "iridium-33-debris",
        "lat": -53.518154756041824,
        "lon": 18.349535411145354,
        "alt_km": 754.6707702654821,
        "timestamp": "2025-12-07T09:35:10.174902+00:00",
        "meta_object_name": "IRIDIUM 33 DEB",
        "meta_object_id": "1997-051RD",
        "meta_epoch": "2025-12-06T21:23:47.071392",
        "meta_mean_motion": 14.47286545,
        "meta_eccentricity": 0.00185223,
        "meta_inclination": 86.3689,
        "meta_ra_of_asc_node": 23.4943,
        "meta_arg_of_pericenter": 135.5581,
        "meta_mean_anomaly": 46.1978,
        "meta_ephemeris_type": 0,
        "meta_classification_type": "U",
        "meta_norad_cat_id": 35631,
        "meta_element_set_no": 999,
        "meta_rev_at_epoch": 87112,
        "meta_bstar": 0.00062002851,
        "meta_mean_motion_dot": 2.292e-05,
        "meta_mean_motion_ddot": 0,
        "tle_line1": "1 35631U 97051RD  25340.89151703  .00002292  00000+0  62003-3 0  9996",
        "tle_line2": "2 35631  86.3689  23.4943 0018522 135.5581  46.1978 14.47286545871121"
      },
      "geometry": {
        "type": "Point",
        "coordinates": [
          18.349535411145354,
          -53.518154756041824
        ]
      }
    },
    {
      "type": "Feature",
      "properties": {
        "norad_id": 35680,
        "name": "IRIDIUM 33 DEB",
        "group": "iridium-33-debris",
        "lat": 66.03540589106592,
        "lon": 32.711956282948066,
        "alt_km": 886.3234714790697,
        "timestamp": "2025-12-07T09:35:10.174912+00:00",
        "meta_object_name": "IRIDIUM 33 DEB",
        "meta_object_id": "1997-051RJ",
        "meta_epoch": "2025-12-06T09:39:51.736896",
        "meta_mean_motion": 14.20748737,
        "meta_eccentricity": 0.01506079,
        "meta_inclination": 86.1022,
        "meta_ra_of_asc_node": 24.3298,
        "meta_arg_of_pericenter": 298.7228,
        "meta_mean_anomaly": 71.4349,
        "meta_ephemeris_type": 0,
        "meta_classification_type": "U",
        "meta_norad_cat_id": 35680,
        "meta_element_set_no": 999,
        "meta_rev_at_epoch": 60611,
        "meta_bstar": 0.0059192818,
        "meta_mean_motion_dot": 0.00014348,
        "meta_mean_motion_ddot": 0,
        "tle_line1": "1 35680U 97051RJ  25340.40268214  .00014348  00000+0  59193-2 0  9993",
        "tle_line2": "2 35680  86.1022  24.3298 0150607 298.7228  71.4349 14.20748737606113"
      },
      "geometry": {
        "type": "Point",
        "coordinates": [
          32.711956282948066,
          66.03540589106592
        ]
      }
    }
  ]
}